[{"OBJECT_NAME":"STARLINK-4367","OBJECT_ID":"2022-084AS","EPOCH":"2026-03-09T18:05:37.658976","MEAN_MOTION":15.05648768,"ECCENTRICITY":9.235e-5,"INCLINATION":97.6027,"RA_OF_ASC_NODE":131.2595,"ARG_OF_PERICENTER":95.504,"MEAN_ANOMALY":264.6292,"EPHEMERIS_TYPE":0,"CLASSIFICATION_TYPE":"U","NORAD_CAT_ID":53229,"ELEMENT_SET_NO":999,"REV_AT_EPOCH":19939,"BSTAR":-2.2863299e-5,"MEAN_MOTION_DOT":-3.91e-6,"MEAN_MOTION_DDOT":0},{"OBJECT_NAME":"FENGYUN 1C DEB","OBJECT_ID":"1999-025AVL","EPOCH":"2026-03-06T12:53:29.086080","MEAN_MOTION":14.83381217,"ECCENTRICITY":0.01434433,"INCLINATION":98.8652,"RA_OF_ASC_NODE":274.6705,"ARG_OF_PERICENTER":90.518,"MEAN_ANOMALY":301.133,"EPHEMERIS_TYPE":0,"CLASSIFICATION_TYPE":"U","NORAD_CAT_ID":30826,"ELEMENT_SET_NO":999,"REV_AT_EPOCH":1528,"BSTAR":0.00060190522,"MEAN_MOTION_DOT":5.85e-5,"MEAN_MOTION_DDOT":0}]
